NORAD_CAT_ID,OBJECT_NAME,OBJECT_TYPE,EPOCH,MEAN_MOTION,ECCENTRICITY,INCLINATION,RA_OF_ASC_NODE,ARG_OF_PERICENTER,MEAN_ANOMALY,BSTAR,MEAN_MOTION_DOT,MEAN_MOTION_DDOT,TLE_LINE0,TLE_LINE1,TLE_LINE2,SEMIMAJOR_AXIS,PERIOD,APOGEE,PERIGEE,DECAYED
52548.0,STARLINK-3931,PAYLOAD,2024-06-30 13:35:07,15.08850313,0.0001082,53.2191,19.5004,91.8219,268.2897,-9.3146e-06,-4.36e-06,0.0,0 STARLINK-3931,1 52548U 22051R   24182.56605547 -.00000436  00000-0 -93146-5 0  9992,2 52548  53.2191  19.5004 0001082  91.8219 268.2897 15.08850313118283,6917.849,95.437,540.462,538.965,0.0
52548.0,STARLINK-3931,PAYLOAD,2024-06-30 19:56:39,15.08855661,0.0001059,53.2184,18.3112,75.1893,284.9216,0.00027944,4.164e-05,0.0,0 STARLINK-3931,1 52548U 22051R   24182.83101335  .00004164  00000-0  27944-3 0  9999,2 52548  53.2184  18.3112 0001059  75.1893 284.9216 15.08855661118392,6917.833,95.437,540.43,538.965,0.0
52548.0,STARLINK-3931,PAYLOAD,2024-07-01 13:25:54,15.08844319,0.0001169,53.2168,15.0415,70.4285,289.6833,0.00020736,3.014e-05,0.0,0 STARLINK-3931,1 52548U 22051R   24183.55965796  .00003014  00000-0  20736-3 0  9993,2 52548  53.2168  15.0415 0001169  70.4285 289.6833 15.08844319118507,6917.867,95.437,540.541,538.923,0.0
52548.0,STARLINK-3931,PAYLOAD,2024-07-01 19:47:26,15.08856543,0.0001176,53.2184,13.8534,89.0214,271.0913,0.00035371,5.348e-05,0.0,0 STARLINK-3931,1 52548U 22051R   24183.82461121  .00005348  00000-0  35371-3 0  9999,2 52548  53.2184  13.8534 0001176  89.0214 271.0913 15.08856543118549,6917.83,95.437,540.508,538.881,0.0
52548.0,STARLINK-3931,PAYLOAD,2024-07-02 05:19:45,15.08845762,0.0001097,53.2174,12.0651,80.8156,279.296,7.589e-05,9.2e-06,0.0,0 STARLINK-3931,1 52548U 22051R   24184.22205290  .00000920  00000-0  75890-4 0  9999,2 52548  53.2174  12.0651 0001097  80.8156 279.2960 15.08845762118605,6917.863,95.437,540.487,538.969,0.0
52548.0,STARLINK-3931,PAYLOAD,2024-07-02 19:38:14,15.08835482,0.0001007,53.2171,9.3912,104.2503,255.8601,-0.00011162,-2.063e-05,0.0,0 STARLINK-3931,1 52548U 22051R   24184.81821860 -.00002063  00000-0 -11162-3 0  9994,2 52548  53.2171   9.3912 0001007 104.2503 255.8601 15.08835482118698,6917.894,95.438,540.456,539.063,0.0
52548.0,STARLINK-3931,PAYLOAD,2024-07-03 19:29:01,15.08841088,8.97e-05,53.2166,4.9302,104.05,256.0592,0.00015356,2.157e-05,0.0,0 STARLINK-3931,1 52548U 22051R   24185.81182030  .00002157  00000-0  15356-3 0  9995,2 52548  53.2166   4.9302 0000897 104.0500 256.0592 15.08841088118777,6917.877,95.437,540.363,539.122,0.0
52548.0,STARLINK-3931,PAYLOAD,2024-07-04 05:01:20,15.08841633,9.18e-05,53.2158,3.1442,82.2227,277.8869,0.00038193,5.796e-05,0.0,0 STARLINK-3931,1 52548U 22051R   24186.20926362  .00005796  00000-0  38193-3 0  9999,2 52548  53.2158   3.1442 0000918  82.2227 277.8869 15.08841633118900,6917.875,95.437,540.375,539.105,0.0
52548.0,STARLINK-3931,PAYLOAD,2024-07-04 19:19:48,15.08838598,8.55e-05,53.2165,0.4678,88.8158,271.2932,0.00019749,2.857e-05,0.0,0 STARLINK-3931,1 52548U 22051R   24186.80542589  .00002857  00000-0  19749-3 0  9991,2 52548  53.2165   0.4678 0000855  88.8158 271.2932 15.08838598118998,6917.885,95.438,540.341,539.158,0.0
52548.0,STARLINK-3931,PAYLOAD,2024-07-05 11:13:40,15.08842299,0.0001008,53.2172,357.4955,82.1347,277.9759,0.00015644,2.203e-05,0.0,0 STARLINK-3931,1 52548U 22051R   24187.46782676  .00002203  00000-0  15644-3 0  9992,2 52548  53.2172 357.4955 0001008  82.1347 277.9759 15.08842299119025,6917.873,95.437,540.436,539.041,0.0
52548.0,STARLINK-3931,PAYLOAD,2024-07-05 17:35:12,15.08848804,8.51e-05,53.2162,356.3053,87.3359,272.773,0.00027037,4.019e-05,0.0,0 STARLINK-3931,1 52548U 22051R   24187.73278337  .00004019  00000-0  27037-3 0  9992,2 52548  53.2162 356.3053 0000851  87.3359 272.7730 15.08848804119060,6917.853,95.437,540.307,539.13,0.0
52548.0,STARLINK-3931,PAYLOAD,2024-07-06 04:42:54,15.08846574,8.25e-05,53.2154,354.2237,82.8472,277.2614,0.00019241,2.776e-05,0.0,0 STARLINK-3931,1 52548U 22051R   24188.19646274  .00002776  00000-0  19241-3 0  9998,2 52548  53.2154 354.2237 0000825  82.8472 277.2614 15.08846574119208,6917.86,95.437,540.296,539.155,0.0
52548.0,STARLINK-3931,PAYLOAD,2024-07-06 11:04:27,15.08840526,0.0001629,53.217,353.0361,74.6038,285.5134,0.00014839,2.074e-05,0.0,0 STARLINK-3931,1 52548U 22051R   24188.46142885  .00002074  00000-0  14839-3 0  9996,2 52548  53.2170 353.0361 0001629  74.6038 285.5134 15.08840526119245,6917.879,95.438,540.871,538.617,0.0
52548.0,STARLINK-3931,PAYLOAD,2024-07-06 17:25:59,15.08841042,0.0001152,53.2167,351.8445,89.4238,270.6887,0.00013179,1.81e-05,0.0,0 STARLINK-3931,1 52548U 22051R   24188.72638719  .00001810  00000-0  13179-3 0  9994,2 52548  53.2167 351.8445 0001152  89.4238 270.6887 15.08841042119218,6917.877,95.437,540.539,538.945,0.0
52548.0,STARLINK-3931,PAYLOAD,2024-07-07 14:06:00,15.08841792,0.0001043,53.2154,347.9796,80.6852,279.4258,0.00020649,3e-05,0.0,0 STARLINK-3931,1 52548U 22051R   24189.58750850  .00003000  00000-0  20649-3 0  9993,2 52548  53.2154 347.9796 0001043  80.6852 279.4258 15.08841792119348,6917.875,95.437,540.461,539.018,0.0
52548.0,STARLINK-3931,PAYLOAD,2024-07-07 20:27:33,15.08847756,0.0001131,53.2175,346.7888,90.4074,269.7048,0.00033812,5.099e-05,0.0,0 STARLINK-3931,1 52548U 22051R   24189.85246665  .00005099  00000-0  33812-3 0  9993,2 52548  53.2175 346.7888 0001131  90.4074 269.7048 15.08847756119450,6917.857,95.437,540.504,538.939,0.0
52548.0,STARLINK-3931,PAYLOAD,2024-07-08 10:46:01,15.08841029,0.0001178,53.218,344.1088,99.8131,260.2994,0.00018569,2.669e-05,0.0,0 STARLINK-3931,1 52548U 22051R   24190.44862891  .00002669  00000-0  18569-3 0  9997,2 52548  53.2180 344.1088 0001178  99.8131 260.2994 15.08841029119541,6917.877,95.437,540.557,538.927,0.0
52548.0,STARLINK-3931,PAYLOAD,2024-07-08 13:56:47,15.0883789,0.0001191,53.2179,343.5156,95.7975,264.3153,0.0001474,2.059e-05,0.0,0 STARLINK-3931,1 52548U 22051R   24190.58111068  .00002059  00000-0  14740-3 0  9995,2 52548  53.2179 343.5156 0001191  95.7975 264.3153 15.08837890119491,6917.887,95.438,540.576,538.928,0.0
52548.0,STARLINK-3931,PAYLOAD,2024-07-08 17:07:34,15.08840077,9.87e-05,53.2177,342.9256,75.9085,284.2017,0.00022517,3.298e-05,0.0,0 STARLINK-3931,1 52548U 22051R   24190.71359075  .00003298  00000-0  22517-3 0  9999,2 52548  53.2177 342.9256 0000987  75.9085 284.2017 15.08840077119511,6917.88,95.438,540.428,539.062,0.0
52548.0,STARLINK-3931,PAYLOAD,2024-07-09 10:36:49,15.08837681,0.0001286,53.2192,339.6591,98.2775,261.8363,-4.2781e-05,-9.69e-06,0.0,0 STARLINK-3931,1 52548U 22051R   24191.44223523 -.00000969  00000-0 -42781-4 0  9998,2 52548  53.2192 339.6591 0001286  98.2775 261.8363 15.08837681119691,6917.887,95.438,540.642,538.863,0.0
52548.0,STARLINK-3931,PAYLOAD,2024-07-09 13:47:35,15.08840165,0.0001395,53.2195,339.064,103.213,256.9018,1.9286e-05,1.9e-07,0.0,0 STARLINK-3931,1 52548U 22051R   24191.57471244  .00000019  00000-0  19286-4 0  9995,2 52548  53.2195 339.0640 0001395 103.2130 256.9018 15.08840165119644,6917.88,95.438,540.71,538.78,0.0
52548.0,STARLINK-3931,PAYLOAD,2024-07-09 15:22:58,15.08839737,0.0001363,53.2197,338.767,103.5711,256.5433,1.6215e-05,-3e-07,0.0,0 STARLINK-3931,1 52548U 22051R   24191.64095233 -.00000030  00000-0  16215-4 0  9996,2 52548  53.2197 338.7670 0001363 103.5711 256.5433 15.08839737119659,6917.881,95.438,540.689,538.803,0.0
52548.0,STARLINK-3931,PAYLOAD,2024-07-10 10:27:36,15.08837303,0.0001265,53.2187,335.1949,89.1881,270.9256,4.6075e-05,4.45e-06,0.0,0 STARLINK-3931,1 52548U 22051R   24192.43583467  .00000445  00000-0  46075-4 0  9991,2 52548  53.2187 335.1949 0001265  89.1881 270.9256 15.08837303119779,6917.889,95.438,540.629,538.879,0.0
52548.0,STARLINK-3931,PAYLOAD,2024-07-10 18:24:31,15.08845084,0.0001314,53.219,333.7089,96.0323,264.0819,0.00012014,1.625e-05,0.0,0 STARLINK-3931,1 52548U 22051R   24192.76703074  .00001625  00000-0  12014-3 0  9991,2 52548  53.2190 333.7089 0001314  96.0323 264.0819 15.08845084119892,6917.865,95.437,540.639,538.821,0.0
52548.0,STARLINK-3931,PAYLOAD,2024-07-11 13:29:09,15.088419,0.0001347,53.2173,330.1398,97.5634,262.5511,0.00014075,1.953e-05,0.0,0 STARLINK-3931,1 52548U 22051R   24193.56191255  .00001953  00000-0  14075-3 0  9995,2 52548  53.2173 330.1398 0001347  97.5634 262.5511 15.08841900119945,6917.875,95.437,540.671,538.808,0.0
52548.0,STARLINK-3931,PAYLOAD,2024-07-11 15:04:32,15.08842596,0.0001218,53.2178,329.8418,95.8512,264.2619,0.00010487,1.382e-05,0.0,0 STARLINK-3931,1 52548U 22051R   24193.62815167  .00001382  00000-0  10487-3 0  9996,2 52548  53.2178 329.8418 0001218  95.8512 264.2619 15.08842596120022,6917.872,95.437,540.58,538.895,0.0
52548.0,STARLINK-3931,PAYLOAD,2024-07-12 14:55:19,15.08837646,0.0001102,53.2153,325.3811,88.9021,271.2097,5.2389e-05,5.46e-06,0.0,0 STARLINK-3931,1 52548U 22051R   24194.62175478  .00000546  00000-0  52389-4 0  9990,2 52548  53.2153 325.3811 0001102  88.9021 271.2097 15.08837646120100,6917.888,95.438,540.515,538.99,0.0
52548.0,STARLINK-3931,PAYLOAD,2024-07-12 18:06:05,15.08845604,0.0001333,53.2144,324.7853,90.6865,269.428,9.1351e-05,1.166e-05,0.0,0 STARLINK-3931,1 52548U 22051R   24194.75423053  .00001166  00000-0  91351-4 0  9990,2 52548  53.2144 324.7853 0001333  90.6865 269.4280 15.08845604120196,6917.863,95.437,540.65,538.806,0.0
52548.0,STARLINK-3931,PAYLOAD,2024-07-13 08:24:34,15.08839796,0.0001049,53.2166,322.1078,101.5309,258.5801,-7.5277e-05,-1.486e-05,0.0,0 STARLINK-3931,1 52548U 22051R   24195.35039481 -.00001486  00000-0 -75277-4 0  9991,2 52548  53.2166 322.1078 0001049 101.5309 258.5801 15.08839796120283,6917.881,95.438,540.472,539.02,0.0
52548.0,STARLINK-3931,PAYLOAD,2024-07-13 14:46:06,15.08843487,0.0001057,53.2163,320.9204,99.322,260.7891,9.798e-06,-1.32e-06,0.0,0 STARLINK-3931,1 52548U 22051R   24195.61535323 -.00000132  00000-0  97980-5 0  9998,2 52548  53.2163 320.9204 0001057  99.3220 260.7891 15.08843487120255,6917.87,95.437,540.466,539.004,0.0
